STARLINK-5016
1 56143U 23046BD  26090.53578762 -.00057917  00000+0 -35072-2 0  9993
2 56143  43.0011  25.1005 0001096 291.3891  68.6837 15.10120397165528
